{
    "links": {
        "self": "http://www.neowsapp.com/rest/v1/neo/3729543?api_key=iIulBulltgU6a56xZRHN4H3l9WmuAYTsLGpBGhQ2"
    },
    "id": "3729543",
    "neo_reference_id": "3729543",
    "name": "(2015 TH144)",
    "designation": "2015 TH144",
    "nasa_jpl_url": "http://ssd.jpl.nasa.gov/sbdb.cgi?sstr=3729543",
    "absolute_magnitude_h": 24.6,
    "estimated_diameter": {
        "kilometers": {
            "estimated_diameter_min": 0.0319561887,
            "estimated_diameter_max": 0.0714562102
        },
        "meters": {
            "estimated_diameter_min": 31.9561886721,
            "estimated_diameter_max": 71.4562101727
        },
        "miles": {
            "estimated_diameter_min": 0.0198566489,
            "estimated_diameter_max": 0.0444008168
        },
        "feet": {
            "estimated_diameter_min": 104.8431420431,
            "estimated_diameter_max": 234.436392583
        }
    },
    "is_potentially_hazardous_asteroid": false,
    "close_approach_data": [
        {
            "close_approach_date": "2015-09-24",
            "close_approach_date_full": "2015-Sep-24 07:30",
            "epoch_date_close_approach": 1443079800000,
            "relative_velocity": {
                "kilometers_per_second": "8.8865993661",
                "kilometers_per_hour": "31991.7577177897",
                "miles_per_hour": "19878.4341219233"
            },
            "miss_distance": {
                "astronomical": "0.0647419544",
                "lunar": "25.1846202616",
                "kilometers": "9685258.477877128",
                "miles": "6018140.5532672464"
            },
            "orbiting_body": "Earth"
        }
    ],
    "orbital_data": {
        "orbit_id": "7",
        "orbit_determination_date": "2017-04-06 08:31:28",
        "first_observation_date": "2015-10-10",
        "last_observation_date": "2015-10-22",
        "data_arc_in_days": 12,
        "observations_used": 16,
        "orbit_uncertainty": "8",
        "minimum_orbit_intersection": ".0641865",
        "jupiter_tisserand_invariant": "3.644",
        "epoch_osculation": "2457307.5",
        "eccentricity": ".5131648065572675",
        "semi_major_axis": "2.018643182437965",
        "inclination": "4.331860080183258",
        "ascending_node_longitude": "53.72811667948319",
        "orbital_period": "1047.581368813472",
        "perihelion_distance": ".9827465442140397",
        "perihelion_argument": "278.8432469721634",
        "aphelion_distance": "3.054539820661889",
        "perihelion_time": "2457266.944342004584",
        "mean_anomaly": "13.93690009482154",
        "mean_motion": ".3436487233519138",
        "equinox": "J2000",
        "orbit_class": {
            "orbit_class_type": "APO",
            "orbit_class_description": "Near-Earth asteroid orbits which cross the Earth’s orbit similar to that of 1862 Apollo",
            "orbit_class_range": "a (semi-major axis) > 1.0 AU; q (perihelion) < 1.017 AU"
        }
    },
    "is_sentry_object": false
}